WGS F1 (USA 195)        
1 32258U 07046A   26064.43214735 -.00000275  00000+0  00000+0 0  9997
2 32258   0.0792  87.4625 0000245 330.3399 218.4068  1.00273148 51295
SKYNET 5B               
1 32294U 07056B   26065.23239332  .00000136  00000+0  00000+0 0  9992
2 32294   4.9897  74.7304 0004010 270.7838 287.1528  1.00271804 67160
ASTRA 4A                
1 32299U 07057A   26065.22597522  .00000027  00000+0  00000+0 0  9994
2 32299   0.0497 296.4657 0002431  51.5377 262.0952  1.00271005 50618
HORIZONS-2              
1 32388U 07063B   26065.17266987 -.00000258  00000+0  00000+0 0  9999
2 32388   2.3364  81.9310 0002786 261.0875 169.2382  1.00271297 66785
THURAYA-3               
1 32404U 08001A   26064.95924303 -.00000305  00000+0  00000+0 0  9992
2 32404   5.8149  35.6053 0002441 312.4958 259.3901  1.00270280 66457
EXPRESS-AM33            
1 32478U 08003A   26059.10089330  .00000128  00000+0  00000+0 0  9990
2 32478   4.5219  76.6684 0014609 179.5560 341.8533  1.00168878 52640
THOR 5                  
1 32487U 08006A   26065.22484854 -.00000014  00000+0  00000+0 0  9998
2 32487   0.0471 254.9826 0002680 102.3756 246.7665  1.00271468 66281
KIZUNA (WINDS)          
1 32500U 08007A   26065.22424187 -.00000039  00000+0  00000+0 0  9995
2 32500   8.2826  63.3143 0001176 204.4671 333.0424  1.00284791 65863
DIRECTV 11              
1 32729U 08013A   26065.20534845 -.00000131  00000+0  00000+0 0  9999
2 32729   0.0180 332.0370 0000293   7.6540 158.9621  1.00271804 44562
ICO G1                  
1 32763U 08016A   26064.99269650 -.00000176  00000+0  00000+0 0  9993
2 32763   5.5098  36.3663 0002628 291.7596 100.1050  1.00272734 65514
VINASAT-1               
1 32767U 08018A   26065.25119534 -.00000333  00000+0  00000+0 0  9999
2 32767   0.0486 287.3449 0002317  98.2498   0.7376  1.00272919 65550
STAR ONE C2             
1 32768U 08018B   26065.28343546 -.00000281  00000+0  00000+0 0  9997
2 32768   0.9775  83.4352 0002807 265.3130 212.2808  1.00274262 65624
AMOS-3                  
1 32794U 08022A   26065.22424187 -.00000040  00000+0  00000+0 0  9999
2 32794   0.1895  88.9057 0001669 187.7401 323.9186  1.00273384 81309
GALAXY 18 (G-18)        
1 32951U 08024A   26065.27199542  .00000000  00000+0  00000+0 0  9990
2 32951   0.0226 155.7057 0003248 216.9145 126.3102  1.00271679 44823
ZHONGXING-9             
1 33051U 08028A   26065.10074134 -.00000254  00000+0  00000+0 0  9999
2 33051   0.5050  86.9862 0008691 243.3951 322.0930  1.00272277 65002
SKYNET 5C               
1 33055U 08030A   26065.15022821 -.00000145  00000+0  00000+0 0  9996
2 33055   3.5253  78.2698 0005084 282.5832 199.2738  1.00271261 64923
TURKSAT 3A              
1 33056U 08030B   26065.22669632  .00000141  00000+0  00000+0 0  9997
2 33056   0.0224  90.5718 0004726 281.7366 275.2555  1.00275726 51321
