[{"OBJECT_NAME":"WGS F1 (USA 195)","OBJECT_ID":"2007-046A","EPOCH":"2026-03-05T10:22:17.531040","MEAN_MOTION":1.00273148,"ECCENTRICITY":2.45e-5,"INCLINATION":0.0792,"RA_OF_ASC_NODE":87.4625,"ARG_OF_PERICENTER":330.3399,"MEAN_ANOMALY":218.4068,"EPHEMERIS_TYPE":0,"CLASSIFICATION_TYPE":"U","NORAD_CAT_ID":32258,"ELEMENT_SET_NO":999,"REV_AT_EPOCH":5129,"BSTAR":0,"MEAN_MOTION_DOT":-2.75e-6,"MEAN_MOTION_DDOT":0},{"OBJECT_NAME":"SKYNET 5B","OBJECT_ID":"2007-056B","EPOCH":"2026-03-06T05:34:38.782848","MEAN_MOTION":1.00271804,"ECCENTRICITY":0.00040102,"INCLINATION":4.9897,"RA_OF_ASC_NODE":74.7304,"ARG_OF_PERICENTER":270.7838,"MEAN_ANOMALY":287.1528,"EPHEMERIS_TYPE":0,"CLASSIFICATION_TYPE":"U","NORAD_CAT_ID":32294,"ELEMENT_SET_NO":999,"REV_AT_EPOCH":6716,"BSTAR":0,"MEAN_MOTION_DOT":1.36e-6,"MEAN_MOTION_DDOT":0},{"OBJECT_NAME":"ASTRA 4A","OBJECT_ID":"2007-057A","EPOCH":"2026-03-06T05:25:24.259008","MEAN_MOTION":1.00271005,"ECCENTRICITY":0.00024319,"INCLINATION":0.0497,"RA_OF_ASC_NODE":296.4657,"ARG_OF_PERICENTER":51.5377,"MEAN_ANOMALY":262.0952,"EPHEMERIS_TYPE":0,"CLASSIFICATION_TYPE":"U","NORAD_CAT_ID":32299,"ELEMENT_SET_NO":999,"REV_AT_EPOCH":5061,"BSTAR":0,"MEAN_MOTION_DOT":2.7e-7,"MEAN_MOTION_DDOT":0},{"OBJECT_NAME":"HORIZONS-2","OBJECT_ID":"2007-063B","EPOCH":"2026-03-06T04:08:38.676768","MEAN_MOTION":1.00271297,"ECCENTRICITY":0.00027869,"INCLINATION":2.3364,"RA_OF_ASC_NODE":81.931,"ARG_OF_PERICENTER":261.0875,"MEAN_ANOMALY":169.2382,"EPHEMERIS_TYPE":0,"CLASSIFICATION_TYPE":"U","NORAD_CAT_ID":32388,"ELEMENT_SET_NO":999,"REV_AT_EPOCH":6678,"BSTAR":0,"MEAN_MOTION_DOT":-2.58e-6,"MEAN_MOTION_DDOT":0},{"OBJECT_NAME":"THURAYA-3","OBJECT_ID":"2008-001A","EPOCH":"2026-03-05T23:01:18.597792","MEAN_MOTION":1.0027028,"ECCENTRICITY":0.0002441,"INCLINATION":5.8149,"RA_OF_ASC_NODE":35.6053,"ARG_OF_PERICENTER":312.4958,"MEAN_ANOMALY":259.3901,"EPHEMERIS_TYPE":0,"CLASSIFICATION_TYPE":"U","NORAD_CAT_ID":32404,"ELEMENT_SET_NO":999,"REV_AT_EPOCH":6645,"BSTAR":0,"MEAN_MOTION_DOT":-3.05e-6,"MEAN_MOTION_DDOT":0},{"OBJECT_NAME":"EXPRESS-AM33","OBJECT_ID":"2008-003A","EPOCH":"2026-02-28T02:25:17.181120","MEAN_MOTION":1.00168878,"ECCENTRICITY":0.00146091,"INCLINATION":4.5219,"RA_OF_ASC_NODE":76.6684,"ARG_OF_PERICENTER":179.556,"MEAN_ANOMALY":341.8533,"EPHEMERIS_TYPE":0,"CLASSIFICATION_TYPE":"U","NORAD_CAT_ID":32478,"ELEMENT_SET_NO":999,"REV_AT_EPOCH":5264,"BSTAR":0,"MEAN_MOTION_DOT":1.28e-6,"MEAN_MOTION_DDOT":0},{"OBJECT_NAME":"THOR 5","OBJECT_ID":"2008-006A","EPOCH":"2026-03-06T05:23:46.913856","MEAN_MOTION":1.00271468,"ECCENTRICITY":0.00026808,"INCLINATION":0.0471,"RA_OF_ASC_NODE":254.9826,"ARG_OF_PERICENTER":102.3756,"MEAN_ANOMALY":246.7665,"EPHEMERIS_TYPE":0,"CLASSIFICATION_TYPE":"U","NORAD_CAT_ID":32487,"ELEMENT_SET_NO":999,"REV_AT_EPOCH":6628,"BSTAR":0,"MEAN_MOTION_DOT":-1.4e-7,"MEAN_MOTION_DDOT":0},{"OBJECT_NAME":"KIZUNA (WINDS)","OBJECT_ID":"2008-007A","EPOCH":"2026-03-06T05:22:54.497568","MEAN_MOTION":1.00284791,"ECCENTRICITY":0.00011763,"INCLINATION":8.2826,"RA_OF_ASC_NODE":63.3143,"ARG_OF_PERICENTER":204.4671,"MEAN_ANOMALY":333.0424,"EPHEMERIS_TYPE":0,"CLASSIFICATION_TYPE":"U","NORAD_CAT_ID":32500,"ELEMENT_SET_NO":999,"REV_AT_EPOCH":6586,"BSTAR":0,"MEAN_MOTION_DOT":-3.9e-7,"MEAN_MOTION_DDOT":0},{"OBJECT_NAME":"DIRECTV 11","OBJECT_ID":"2008-013A","EPOCH":"2026-03-06T04:55:42.106080","MEAN_MOTION":1.00271804,"ECCENTRICITY":2.93e-5,"INCLINATION":0.018,"RA_OF_ASC_NODE":332.037,"ARG_OF_PERICENTER":7.654,"MEAN_ANOMALY":158.9621,"EPHEMERIS_TYPE":0,"CLASSIFICATION_TYPE":"U","NORAD_CAT_ID":32729,"ELEMENT_SET_NO":999,"REV_AT_EPOCH":4456,"BSTAR":0,"MEAN_MOTION_DOT":-1.31e-6,"MEAN_MOTION_DDOT":0},{"OBJECT_NAME":"ICO G1","OBJECT_ID":"2008-016A","EPOCH":"2026-03-05T23:49:28.977600","MEAN_MOTION":1.00272734,"ECCENTRICITY":0.00026289,"INCLINATION":5.5098,"RA_OF_ASC_NODE":36.3663,"ARG_OF_PERICENTER":291.7596,"MEAN_ANOMALY":100.105,"EPHEMERIS_TYPE":0,"CLASSIFICATION_TYPE":"U","NORAD_CAT_ID":32763,"ELEMENT_SET_NO":999,"REV_AT_EPOCH":6551,"BSTAR":0,"MEAN_MOTION_DOT":-1.76e-6,"MEAN_MOTION_DDOT":0},{"OBJECT_NAME":"VINASAT-1","OBJECT_ID":"2008-018A","EPOCH":"2026-03-06T06:01:43.277376","MEAN_MOTION":1.00272919,"ECCENTRICITY":0.00023171,"INCLINATION":0.0486,"RA_OF_ASC_NODE":287.3449,"ARG_OF_PERICENTER":98.2498,"MEAN_ANOMALY":0.7376,"EPHEMERIS_TYPE":0,"CLASSIFICATION_TYPE":"U","NORAD_CAT_ID":32767,"ELEMENT_SET_NO":999,"REV_AT_EPOCH":6555,"BSTAR":0,"MEAN_MOTION_DOT":-3.33e-6,"MEAN_MOTION_DDOT":0},{"OBJECT_NAME":"STAR ONE C2","OBJECT_ID":"2008-018B","EPOCH":"2026-03-06T06:48:08.823744","MEAN_MOTION":1.00274262,"ECCENTRICITY":0.00028077,"INCLINATION":0.9775,"RA_OF_ASC_NODE":83.4352,"ARG_OF_PERICENTER":265.313,"MEAN_ANOMALY":212.2808,"EPHEMERIS_TYPE":0,"CLASSIFICATION_TYPE":"U","NORAD_CAT_ID":32768,"ELEMENT_SET_NO":999,"REV_AT_EPOCH":6562,"BSTAR":0,"MEAN_MOTION_DOT":-2.81e-6,"MEAN_MOTION_DDOT":0},{"OBJECT_NAME":"AMOS-3","OBJECT_ID":"2008-022A","EPOCH":"2026-03-06T05:22:54.497568","MEAN_MOTION":1.00273384,"ECCENTRICITY":0.00016694,"INCLINATION":0.1895,"RA_OF_ASC_NODE":88.9057,"ARG_OF_PERICENTER":187.7401,"MEAN_ANOMALY":323.9186,"EPHEMERIS_TYPE":0,"CLASSIFICATION_TYPE":"U","NORAD_CAT_ID":32794,"ELEMENT_SET_NO":999,"REV_AT_EPOCH":8130,"BSTAR":0,"MEAN_MOTION_DOT":-4.0e-7,"MEAN_MOTION_DDOT":0},{"OBJECT_NAME":"GALAXY 18 (G-18)","OBJECT_ID":"2008-024A","EPOCH":"2026-03-06T06:31:40.404288","MEAN_MOTION":1.00271679,"ECCENTRICITY":0.00032486,"INCLINATION":0.0226,"RA_OF_ASC_NODE":155.7057,"ARG_OF_PERICENTER":216.9145,"MEAN_ANOMALY":126.3102,"EPHEMERIS_TYPE":0,"CLASSIFICATION_TYPE":"U","NORAD_CAT_ID":32951,"ELEMENT_SET_NO":999,"REV_AT_EPOCH":4482,"BSTAR":0,"MEAN_MOTION_DOT":0,"MEAN_MOTION_DDOT":0},{"OBJECT_NAME":"ZHONGXING-9","OBJECT_ID":"2008-028A","EPOCH":"2026-03-06T02:25:04.051776","MEAN_MOTION":1.00272277,"ECCENTRICITY":0.0008691,"INCLINATION":0.505,"RA_OF_ASC_NODE":86.9862,"ARG_OF_PERICENTER":243.3951,"MEAN_ANOMALY":322.093,"EPHEMERIS_TYPE":0,"CLASSIFICATION_TYPE":"U","NORAD_CAT_ID":33051,"ELEMENT_SET_NO":999,"REV_AT_EPOCH":6500,"BSTAR":0,"MEAN_MOTION_DOT":-2.54e-6,"MEAN_MOTION_DDOT":0},{"OBJECT_NAME":"SKYNET 5C","OBJECT_ID":"2008-030A","EPOCH":"2026-03-06T03:36:19.717344","MEAN_MOTION":1.00271261,"ECCENTRICITY":0.00050846,"INCLINATION":3.5253,"RA_OF_ASC_NODE":78.2698,"ARG_OF_PERICENTER":282.5832,"MEAN_ANOMALY":199.2738,"EPHEMERIS_TYPE":0,"CLASSIFICATION_TYPE":"U","NORAD_CAT_ID":33055,"ELEMENT_SET_NO":999,"REV_AT_EPOCH":6492,"BSTAR":0,"MEAN_MOTION_DOT":-1.45e-6,"MEAN_MOTION_DDOT":0},{"OBJECT_NAME":"TURKSAT 3A","OBJECT_ID":"2008-030B","EPOCH":"2026-03-06T05:26:26.562048","MEAN_MOTION":1.00275726,"ECCENTRICITY":0.00047265,"INCLINATION":0.0224,"RA_OF_ASC_NODE":90.5718,"ARG_OF_PERICENTER":281.7366,"MEAN_ANOMALY":275.2555,"EPHEMERIS_TYPE":0,"CLASSIFICATION_TYPE":"U","NORAD_CAT_ID":33056,"ELEMENT_SET_NO":999,"REV_AT_EPOCH":5132,"BSTAR":0,"MEAN_MOTION_DOT":1.41e-6,"MEAN_MOTION_DDOT":0}]
